STARLINK-4538           
1 53430U 22097AU  24294.81032993  .00000064  00000+0  22130-4 0  9992
2 53430  53.2173 210.6494 0001280  93.0773 267.0366 15.08842729122544
STARLINK-4548           
1 53431U 22097AV  24294.76979759  .00005305  00000+0  35110-3 0  9991
2 53431  53.2160 210.4022 0001485  78.8146 281.3013 15.08847758122565
STARLINK-4557           
1 53432U 22097AW  24294.85077514  .00000291  00000+0  36394-4 0  9995
2 53432  53.2170 210.1944 0001418  94.8529 265.2625 15.08837537122571
STARLINK-4549           
1 53433U 22097AX  24294.80664206  .00002333  00000+0  16462-3 0  9993
2 53433  53.2165 210.6229 0001328  95.6849 264.4295 15.08840685122540
STARLINK-4498           
1 53434U 22097AY  24294.18468396  .00001725  00000+0  12642-3 0  9997
2 53434  53.2184 213.1416 0001663 112.3382 247.7786 15.08845754122483
STARLINK-4542           
1 53435U 22097AZ  24294.05957418  .00001875  00000+0  13586-3 0  9996
2 53435  53.2184 213.7812 0001475 108.4438 251.6715 15.08843036122431
STARLINK-4527           
1 53436U 22097BA  24294.77715943  .00004234  00000+0  28390-3 0  9992
2 53436  53.2171 210.4426 0001661 113.9718 246.1448 15.08849057122567
STARLINK-4526           
1 53438U 22097BC  24294.77347623  .00002158  00000+0  15359-3 0  9994
2 53438  53.2183 210.4187 0001637 110.7413 249.3754 15.08845247122579
STARLINK-4519           
1 53439U 22097BD  24294.18932422  .00005069  00000+0  33619-3 0  9990
2 53439  53.2170 213.1669 0001687 117.6439 242.4724 15.08854328122481
STARLINK-4415           
1 53465U 22099A   24294.76929272  .00016887  00000+0  13150-2 0  9991
2 53465  97.6550  53.7987 0002785 226.7648 133.3344 15.01293109120233
STARLINK-4398           
1 53466U 22099B   24294.76954378  .00001300  00000+0  10579-3 0  9994
2 53466  97.6562  53.7943 0003655 235.4184 124.6696 15.01264017120226
STARLINK-4394           
1 53467U 22099C   24294.76559313  .00002170  00000+0  17344-3 0  9998
2 53467  97.6578  53.8502 0001956 256.4404 103.6602 15.01266417120226
STARLINK-4400           
1 53468U 22099D   24294.76584358  .00001613  00000+0  13015-3 0  9998
2 53468  97.6584  53.7939 0001704 236.6213 123.4848 15.01264574120220
STARLINK-4399           
1 53469U 22099E   24294.76189602  .00001915  00000+0  15361-3 0  9993
2 53469  97.6568  53.7978 0001627 262.4510  97.6529 15.01263316120228
STARLINK-4393           
1 53470U 22099F   24294.29718070  .00001139  00000+0  93234-4 0  9994
2 53470  97.6574  53.3336 0000469 260.4793  99.6378 15.01269434120158
STARLINK-4316           
1 53471U 22099G   24294.29162398  .00001919  00000+0  15388-3 0  9990
2 53471  97.6544  53.3380 0001166 159.5025 200.6247 15.01269729120152
STARLINK-4447           
1 53472U 22099H   24294.76004642 -.00001970  00000+0 -14881-3 0  9996
2 53472  97.6574  53.8001 0000828 217.0777 143.0390 15.01266955120224
STARLINK-4383           
1 53473U 22099J   24294.28792383  .00003519  00000+0  27841-3 0  9999
2 53473  97.6572  53.3414 0001063 160.1848 199.9418 15.01265485120155
STARLINK-4445           
1 53474U 22099K   24294.81398807  .00001791  00000+0  14400-3 0  9999
2 53474  97.6579  53.8633 0002007  70.4098 289.7343 15.01264780120231
STARLINK-4389           
1 53475U 22099L   24294.35274513  .00004127  00000+0  32572-3 0  9992
2 53475  97.6577  53.4058 0000870  87.5724 272.5600 15.01258717120866
STARLINK-4378           
1 53476U 22099M   24294.28976766  .00001693  00000+0  13631-3 0  9994
2 53476  97.6542  53.3393 0000216  87.1638 272.9611 15.01269161120157
STARLINK-4412           
1 53477U 22099N   24294.28816853  .00002257  00000+0  18025-3 0  9994
2 53477  97.6580  53.3281 0000937 236.2237 123.8898 15.01268293120851
STARLINK-4433           
1 53478U 22099P   24294.34902303  .00005307  00000+0  41738-3 0  9994
2 53478  97.6553  53.4151 0001711 107.2014 252.9397 15.01270720120160
STARLINK-4436           
1 53479U 22099Q   24294.81373219  .00004649  00000+0  36604-3 0  9999
2 53479  97.6521  53.8570 0002603  99.4014 260.7505 15.01283346120232
STARLINK-4442           
1 53480U 22099R   24294.28422192  .00004303  00000+0  33932-3 0  9995
2 53480  97.6562  53.3367 0000303 259.4203 100.6987 15.01268003120151
STARLINK-4302           
1 53481U 22099S   24294.81189251  .00002569  00000+0  20453-3 0  9997
2 53481  97.6566  53.8588 0001706  52.1928 307.9451 15.01265354120239
STARLINK-4360           
1 53482U 22099T   24294.80078210  .00001335  00000+0  10846-3 0  9994
2 53482  97.6570  53.8732 0001390  94.8123 265.3260 15.01265443120239
STARLINK-4401           
1 53483U 22099U   24294.79893050  .00001897  00000+0  15222-3 0  9996
2 53483  97.6573  53.8618 0001517  91.1739 268.9659 15.01265961120236
STARLINK-4426           
1 53484U 22099V   24294.81003889  .00006299  00000+0  49447-3 0  9990
2 53484  97.6590  53.8613 0001580  44.2512 315.8838 15.01270603120239
STARLINK-4430           
1 53485U 22099W   24294.80449084  .00002985  00000+0  23686-3 0  9996
2 53485  97.6556  53.8500 0001617  81.6251 278.5157 15.01265172120237
STARLINK-4431           
1 53486U 22099X   24294.80819139  .00002275  00000+0  18167-3 0  9999
2 53486  97.6567  53.8568 0001581  56.6163 303.5213 15.01264515120230
STARLINK-4432           
1 53487U 22099Y   24294.80843994  .00003869  00000+0  30561-3 0  9998
2 53487  97.6558  53.8387 0002000 102.0393 258.1056 15.01262683120232
STARLINK-4421           
1 53488U 22099Z   24294.80633962  .00005520  00000+0  43396-3 0  9997
2 53488  97.6566  53.8541 0001745  55.9306 304.2083 15.01267485120237
STARLINK-4392           
1 53489U 22099AA  24294.80658796  .00003414  00000+0  27019-3 0  9994
2 53489  97.6559  53.8361 0001673  80.6479 279.4935 15.01264984120236
STARLINK-4387           
1 53490U 22099AB  24294.80263912  .00000213  00000+0  21211-4 0  9991
2 53490  97.6568  53.8482 0001628  83.2660 276.8749 15.01263512120233
STARLINK-4450           
1 53491U 22099AC  24294.79175663 -.00007097  00000+0 -54797-3 0  9998
2 53491  97.6551  53.8415 0000959 113.1068 247.0257 15.01298487120236
STARLINK-4451           
1 53492U 22099AD  24294.79708029  .00009244  00000+0  72303-3 0  9994
2 53492  97.6569  53.8486 0001613  61.1044 299.0341 15.01275446120239
STARLINK-4361           
1 53493U 22099AE  24294.79522954  .00000632  00000+0  53802-4 0  9992
2 53493  97.6563  53.8310 0001630  91.1896 268.9515 15.01263581120232
STARLINK-4340           
1 53494U 22099AF  24294.79917913  .00000813  00000+0  67904-4 0  9995
2 53494  97.6560  53.8386 0001425  95.5425 264.5962 15.01260275120236
STARLINK-4429           
1 53495U 22099AG  24294.78967188  .00001773  00000+0  14258-3 0  9993
2 53495  97.6555  53.8325 0001181  92.9689 267.1670 15.01267918120232
STARLINK-4465           
1 53496U 22099AH  24294.79337791  .00001891  00000+0  15172-3 0  9993
2 53496  97.6570  53.8384 0001168  60.7929 299.3412 15.01265595120230
STARLINK-4453           
1 53497U 22099AJ  24294.78595613 -.00006382  00000+0 -49231-3 0  9997
2 53497  97.6541  53.8263 0000436 127.8724 232.2540 15.01291834120233
STARLINK-4439           
1 53498U 22099AK  24294.31964828  .00003514  00000+0  27800-3 0  9995
2 53498  97.6546  53.3790 0001814  76.4141 283.7286 15.01269918120160
STARLINK-4454           
1 53499U 22099AL  24294.79152543  .00002096  00000+0  16771-3 0  9990
2 53499  97.6567  53.8195 0001330  88.0049 272.1327 15.01267591120238
STARLINK-4455           
1 53500U 22099AM  24294.78782252  .00001605  00000+0  12952-3 0  9990
2 53500  97.6556  53.8288 0000838 106.5558 253.5759 15.01263405120237
STARLINK-4434           
1 53501U 22099AN  24294.77855899  .00001803  00000+0  14490-3 0  9997
2 53501  97.6559  53.8168 0002064 262.6290  97.4700 15.01265151120239
STARLINK-4435           
1 53502U 22099AP  24294.78411709  .00001053  00000+0  86569-4 0  9991
2 53502  97.6538  53.8235 0000153 153.7344 206.3888 15.01264808120235
STARLINK-4461           
1 53503U 22099AQ  24294.78434675  .00007392  00000+0  57897-3 0  9992
2 53503  97.6532  53.8106 0000502  97.4802 262.6479 15.01293309120237
STARLINK-4448           
1 53504U 22099AR  24294.78226298  .00001454  00000+0  11772-3 0  9998
2 53504  97.6536  53.8194 0000537 238.1898 121.9274 15.01266734120238
STARLINK-4446           
1 53505U 22099AS  24294.77485305  .00000789  00000+0  66025-4 0  9996
2 53505  97.6552  53.8063 0003217 252.9161 107.1711 15.01264852120238
STARLINK-4437           
1 53506U 22099AT  24294.78040978  .00002496  00000+0  19880-3 0  9994
2 53506  97.6545  53.8078 0001161 232.0364 128.0755 15.01268939120237
STARLINK-4444           
1 53507U 22099AU  24294.77299913  .00001388  00000+0  11265-3 0  9997
2 53507  97.6566  53.8058 0003471 258.3894 101.6941 15.01266338120239
STARLINK-4443           
1 53508U 22099AV  24294.77670447  .00000546  00000+0  47113-4 0  9990
2 53508  97.6547  53.8103 0003441 257.2726 102.8114 15.01263360120236
STARLINK-4402           
1 53509U 22099AW  24294.77114902  .00001898  00000+0  15227-3 0  9991
2 53509  97.6543  53.7951 0003657 242.3370 117.7483 15.01267576120239
STARLINK-4441           
1 53510U 22099AX  24294.76744604  .00001648  00000+0  13288-3 0  9998
2 53510  97.6574  53.8070 0004402 216.8048 143.2875 15.01263935120239
STARLINK-4511           
1 53527U 22101A   24294.09915673  .00003566  00000+0  24193-3 0  9990
2 53527  53.2170 183.8008 0001346 100.7837 259.3307 15.08851015119835
STARLINK-4503           
1 53528U 22101B   24294.10283186  .00009483  00000+0  61266-3 0  9996
2 53528  53.2150 183.7884 0001471  89.2837 270.8324 15.08866845119839
STARLINK-4478           
1 53529U 22101C   24294.69164278  .00003973  00000+0  26751-3 0  9999
2 53529  53.2159 181.1554 0001441  79.7087 280.4067 15.08848207119926
STARLINK-4482           
1 53530U 22101D   24294.70638649  .00000761  00000+0  65895-4 0  9996
2 53530  53.2169 181.2924 0002056 105.3411 254.7809 15.08844668119926
